ENDUROSAT ONE           
1 43551U 98067NZ  20289.40008140  .12819970  12606-4  34454-3 0  9995
2 43551  51.6143   6.3935 0004068 320.9805  39.0930 16.45548142129489
EQUISAT                 
1 43552U 98067PA  20292.52343101  .00061798  00000-0  27193-3 0  9999
2 43552  51.6304  12.7529 0002098 296.6396  63.4393 15.83943626129643
AEROCUBE 12A            
1 43556U 18046C   20292.23524458  .00001813  00000-0  73396-4 0  9995
2 43556  51.6413 235.4534 0008505  20.1346 339.9968 15.30191712126179
AEROCUBE 12B            
1 43557U 18046D   20292.84297769  .00002242  00000-0  88712-4 0  9990
2 43557  51.6418 233.4943 0008452  21.3646 338.7685 15.29859306126209
UITMSAT-1               
1 43589U 98067PD  20292.67879550  .00135406  18122-4  38324-3 0  9991
2 43589  51.6308   5.2846 0005096 345.0165  15.0690 15.93154234125492
MAYA-1                  
1 43590U 98067PE  20292.48208936  .00148054  19467-4  41861-3 0  9992
2 43590  51.6256   6.1487 0004890 346.3164  13.7710 15.93134498125398
BHUTAN-1                
1 43591U 98067PF  20292.49764796  .00139210  18576-4  38283-3 0  9993
2 43591  51.6313   5.6638 0005226 346.0894  13.9968 15.93684243125403
SIRIUSSAT-1             
1 43595U 98067PG  20292.23440356  .00058441  00000-0  23108-3 0  9997
2 43595  51.6274  15.8441 0002314 344.1991  16.0030 15.86195473124429
SIRIUSSAT-2             
1 43596U 98067PH  20292.80817272  .00110830  00000-0  43069-3 0  9995
2 43596  51.6351  13.7563 0003549 212.6637 147.3980 15.86299605124508
SURFSAT                 
1 43614U 18070B   20292.84558919  .00003478  00000-0  87684-4 0  9997
2 43614  93.0294 205.6786 0013144 210.5313 149.5178 15.39843233117464
CP7 (DAVE)              
1 43615U 18070C   20292.88991110  .00003205  00000-0  81314-4 0  9998
2 43615  93.0297 205.6793 0013323 210.0949 149.9541 15.39661395117460
ELFIN-B                 
1 43616U 18070D   20292.87696269  .00005285  00000-0  12684-3 0  9998
2 43616  93.0256 205.6626 0013463 210.8767 149.1699 15.41307052117525
ELFIN-A                 
1 43617U 18070E   20292.89308478  .00005264  00000-0  12529-3 0  9998
2 43617  93.0310 206.2869 0013036 206.2748 153.7848 15.41566825117530
CUBEBEL-1 (BSUSAT-1)    
1 43666U 18083E   20292.80818602  .00000964  00000-0  50023-4 0  9996
2 43666  97.4823 318.0198 0013456 294.8466 179.4389 15.18488730109330
CICERO 10               
1 43690U 18088A   20292.83943373  .00001151  00000-0  50894-4 0  9990
2 43690  85.0405 357.0171 0013653 209.7139 150.3328 15.20433485107509
IRVINE01                
1 43693U 18088D   20292.67741163  .00002698  00000-0  11128-3 0  9991
2 43693  85.0375 355.4202 0017283 189.6597 170.4317 15.23422856107607
PROXIMA I               
1 43694U 18088E   20292.75576314  .00001067  00000-0  44536-4 0  9994
2 43694  85.0346 355.2936 0018925 183.0055 177.1076 15.22181236107608
PROXIMA II              
1 43696U 18088G   20292.75387348  .00001054  00000-0  43943-4 0  9990
2 43696  85.0347 355.2998 0018969 182.9539 177.1594 15.22181868107596
FACSAT-1                
1 43721U 18096C   20292.85566084  .00001465  00000-0  56889-4 0  9994
2 43721  97.4122   5.7198 0018697  50.2617  58.8254 15.27561824105229
CENTAURI-2              
1 43722U 18096D   20292.88070149  .00002515  00000-0  93833-4 0  9997
2 43722  97.4124   6.1487 0018507  49.9773 310.3087 15.28206903105243
INNOSAT-2               
1 43738U 18096V   20292.84365115  .00002836  00000-0  96597-4 0  9996
2 43738  97.4162   8.6163 0024169  54.0978  55.9998 15.30968142105409
SIRION PATHFINDER-2     
1 43759U 18099B   20292.77357138  .00000069  00000-0  11405-4 0  9991
2 43759  97.6965   2.2605 0015582 127.6800 232.5824 14.95334056102360
CORVUS-BC 4             
1 43767U 18099K   20292.76055533  .00000626  00000-0  62688-4 0  9991
2 43767  97.6936   1.5234 0013132 131.3664 228.8693 14.94776380102323
MOVE-II                 
1 43780U 18099Y   20292.84107575  .00000131  00000-0  16937-4 0  9996
2 43780  97.6958   2.3024 0014495 138.2897 221.9432 14.95519608102352
SPACEBEE-7              
1 43816U 18099BL  20292.89077223  .00000788  00000-0  75624-4 0  9993
2 43816  97.6972   2.8167 0014805 123.2902 236.9740 14.95794393101945
SPACEBEE-5              
1 43817U 18099BM  20292.92244134  .00000812  00000-0  76382-4 0  9995
2 43817  97.7030   3.5097 0014263 124.3147 235.9427 14.96535413101974
SPACEBEE-6              
1 43818U 18099BN  20292.90388477  .00000378  00000-0  38773-4 0  9992
2 43818  97.6992   3.0344 0014615 123.0935 237.1692 14.96024547102108
SHIELDS 1               
1 43850U 18104B   20292.91872312  .00000601  00000-0  24866-4 0  9999
2 43850  85.0261  93.7212 0014158 345.3491  14.7338 15.21490068102247
STF-1                   
1 43852U 18104D   20292.93527179  .00001381  00000-0  59448-4 0  9991
2 43852  85.0303  94.3253 0014424   0.1566 359.9677 15.21522238102226
ZACUBE-2                
1 43907U 18111AH  20292.92926706  .00000534  00000-0  24237-4 0  9995
2 43907  97.2520 188.8819 0023166  68.4976  66.1027 15.24717563100825
LUME 1                  
1 43908U 18111AJ  20292.78844025  .00001292  00000-0  53776-4 0  9995
2 43908  97.2516 189.0108 0022813  68.6674 291.6996 15.25280629100829
AOBA VELOX-IV           
1 43940U 19003J   20292.78557151  .00002169  00000-0  87842-4 0  9998
2 43940  97.2142 339.7693 0024623 143.6469 216.6448 15.25442849 97446
CATSAT-2                
1 44029U 98067PV  20292.63103142  .00030977  00000-0  25561-3 0  9992
2 44029  51.6392  49.8109 0002865 216.1991 143.8813 15.70044316 97845
DELPHINI                
1 44030U 98067PW  20292.73876789  .00036665  00000-0  27915-3 0  9994
2 44030  51.6333  46.5921 0002326 224.5727 135.5084 15.71887460 97866
UNITE                   
1 44031U 98067PX  20292.62608568  .00014698  00000-0  15891-3 0  9993
2 44031  51.6378  60.2486 0002481 183.9778 176.1198 15.63854261 97671
CATSAT-1                
1 44033U 98067PZ  20292.63088345  .00029315  00000-0  24223-3 0  9992
2 44033  51.6393  49.8206 0002752 216.1239 143.9573 15.70041588 97751
RAAVANA-1               
1 44329U 98067QE  20292.64802673  .00015494  00000-0  18933-3 0  9993
2 44329  51.6392  75.4783 0005156 106.1985 253.9576 15.60615829 76228
UGUISU                  
1 44330U 98067QF  20292.79647474  .00016367  00000-0  20050-3 0  9990
2 44330  51.6365  74.9350 0005086 106.1670 253.9883 15.60502431 76222
NEPALISAT-1             
1 44331U 98067QG  20292.63926678  .00015504  00000-0  18939-3 0  9995
2 44331  51.6364  75.3876 0005109 108.7854 251.3694 15.60624254 76217
SPOOQY-1                
1 44332U 98067QH  20292.84427334  .00015980  00000-0  19617-3 0  9996
2 44332  51.6376  74.5159 0004267 112.4249 247.7196 15.60471022 76208
SPACEBEE-9              
1 44370U 19037F   20292.76473879  .00009895  00000-0  20865-3 0  9999
2 44370  45.0043 145.3684 0013818 199.9436 160.0915 15.45457831 73666
SPACEBEE-8              
1 44371U 19037G   20292.87870451  .00026982  00000-0  44132-3 0  9998
2 44371  45.0044 133.5621 0013110 212.9396 147.0680 15.51997990 73817
IOD-1 GEMS              
1 44385U 98067QK  20292.77339422  .00029482  00000-0  29963-3 0  9993
2 44385  51.6387  70.3604 0001480  40.0432 320.0672 15.64921257 73767
MOVE-IIB                
1 44398U 19038N   20292.94088439  .00001677  00000-0  99040-4 0  9996
2 44398  97.5488 252.7066 0026703  63.1591 297.2367 15.12603821 71241
SONATE                  
1 44400U 19038Q   20292.94455868  .00000844  00000-0  52484-4 0  9990
2 44400  97.5535 252.7120 0026785  62.5537 297.8412 15.12078590 71237
LUCKY-7                 
1 44406U 19038W   20292.87157611  .00000785  00000-0  48708-4 0  9991
2 44406  97.5549 252.7877 0026074  62.5010 297.8867 15.12368254 71226
BEESAT 9                
1 44412U 19038AC  20292.86195993  .00001102  00000-0  66675-4 0  9999
2 44412  97.5537 252.7622 0024229  67.9768 292.4034 15.12497497 70922
JAISAT-1                
1 44419U 19038F   20292.90895316  .00001193  00000-0  70970-4 0  9990
2 44419  97.5540 253.1672 0023073  66.8772 293.4888 15.12982072 71266
SWIATOWID               
1 44426U 98067QL  20292.83983667  .00036622  00000-0  34456-3 0  9999
2 44426  51.6383  68.2308 0001918  37.7069  96.1581 15.66742096 73811
KRAKSAT                 
1 44427U 98067QM  20292.79978243  .00009945  00000-0  13713-3 0  9990
2 44427  51.6405  79.9949 0003253  65.1599  75.7609 15.57889822 73693
VCC A                   
1 44428U 98067QN  20292.69526540  .00015014  00000-0  18926-3 0  9994
2 44428  51.6392  77.3437 0002152  80.0987 280.0249 15.59831310 73723
ENTRYSAT                
1 44429U 98067QP  20292.63063455  .00019147  00000-0  22526-3 0  9992
2 44429  51.6376  75.3651 0001693  69.2409 290.8766 15.61442934 73747
VCC C                   
1 44430U 98067QQ  20292.67660421  .00024680  00000-0  26592-3 0  9999
2 44430  51.6374  72.6782 0001084  87.3419 272.7699 15.63540020 72603
VCC B                   
1 44431U 98067QR  20292.69041695  .00015030  00000-0  18884-3 0  9992
2 44431  51.6374  77.2799 0002262  78.9635 281.1612 15.59918187 73662
ATL-1                   
1 44830U 19084G   20283.37625441  .14504533  23319-5  28099-3 0  9997
2 44830  96.9282 155.2233 0011473 239.9810 120.0357 16.46538413 48546
SMOG-P                  
1 44832U 19084J   20272.06303716  .11453400  23230-5  63587-3 0  9997
2 44832  96.9437 144.0914 0010614 231.8961 128.1384 16.41416157 46773
DUCHIFAT-3              
1 44854U 19089C   20292.78286069  .00000413  00000-0  39728-4 0  9994
2 44854  36.9663  89.4551 0009667 336.8607  23.1698 14.99157477 46815
EYESAT-NANO             
1 44877U 19092E   20292.56159087  .00001147  00000-0  61262-4 0  9991
2 44877  97.4572 113.8641 0012532 316.0765  43.9472 15.17058661 46257
ORBITAL FACTORY 2 (OF-2)
1 45113U 19071C   20292.84233169  .00002108  00000-0  74794-4 0  9999
2 45113  51.6414 127.3045 0013399 140.2381 219.9585 15.33824827 40065
